NORAD_CAT_ID,OBJECT_NAME,OBJECT_TYPE,EPOCH,MEAN_MOTION,ECCENTRICITY,INCLINATION,RA_OF_ASC_NODE,ARG_OF_PERICENTER,MEAN_ANOMALY,BSTAR,MEAN_MOTION_DOT,MEAN_MOTION_DDOT,TLE_LINE0,TLE_LINE1,TLE_LINE2,SEMIMAJOR_AXIS,PERIOD,APOGEE,PERIGEE,DECAYED
53629.0,STARLINK-4602,PAYLOAD,2024-05-12 00:15:16,15.08820747,8.38e-05,53.2173,346.6402,83.4673,276.6415,-0.0015605,-0.00025024,0.0,0 STARLINK-4602,1 53629U 22104AT  24133.01060491 -.00025024  00000-0 -15605-2 0  9992,2 53629  53.2173 346.6402 0000838  83.4673 276.6415 15.08820747 94425,6917.939,95.439,540.384,539.225,0.0
53629.0,STARLINK-4602,PAYLOAD,2024-05-12 14:33:48,15.0874604,9.1e-05,53.2171,343.9647,90.1285,269.9811,0.0019709,0.00031137,0.0,0 STARLINK-4602,1 53629U 22104AT  24133.60681283  .00031137  00000-0  19709-2 0  9994,2 53629  53.2171 343.9647 0000910  90.1285 269.9811 15.08746040 95204,6918.168,95.443,540.662,539.403,0.0
53629.0,STARLINK-4602,PAYLOAD,2024-05-12 20:55:21,15.08824002,0.0001119,53.2178,342.7763,117.9049,242.2056,0.0021864,0.00034665,0.0,0 STARLINK-4602,1 53629U 22104AT  24133.87177640  .00034665  00000-0  21864-2 0  9994,2 53629  53.2178 342.7763 0001119 117.9049 242.2056 15.08824002 94552,6917.929,95.439,540.568,539.02,0.0
53629.0,STARLINK-4602,PAYLOAD,2024-05-13 14:24:35,15.08864613,0.0001149,53.2184,339.5069,117.9503,242.1605,0.0019445,0.00030815,0.0,0 STARLINK-4602,1 53629U 22104AT  24134.60041349  .00030815  00000-0  19445-2 0  9997,2 53629  53.2184 339.5069 0001149 117.9503 242.1605 15.08864613 95350,6917.805,95.436,540.465,538.875,0.0
53629.0,STARLINK-4602,PAYLOAD,2024-05-13 22:21:30,15.0886796,9.71e-05,53.218,338.0181,113.6213,246.4881,0.0012129,0.00019083,0.0,0 STARLINK-4602,1 53629U 22104AT  24134.93160862  .00019083  00000-0  12129-2 0  9991,2 53629  53.2180 338.0181 0000971 113.6213 246.4881 15.08867960 95405,6917.795,95.436,540.332,538.988,0.0
53629.0,STARLINK-4602,PAYLOAD,2024-05-14 06:18:26,15.08867756,9.04e-05,53.2173,336.5303,110.7366,249.3723,0.00069901,0.00010863,0.0,0 STARLINK-4602,1 53629U 22104AT  24135.26280335  .00010863  00000-0  69901-3 0  9994,2 53629  53.2173 336.5303 0000904 110.7366 249.3723 15.08867756 95454,6917.796,95.436,540.286,539.035,0.0
53629.0,STARLINK-4602,PAYLOAD,2024-05-14 22:12:16,15.08884185,8.61e-05,53.2174,333.5566,111.8355,248.2729,0.00082106,0.00012819,0.0,0 STARLINK-4602,1 53629U 22104AT  24135.92518730  .00012819  00000-0  82106-3 0  9995,2 53629  53.2174 333.5566 0000861 111.8355 248.2729 15.08884185 95555,6917.745,95.435,540.206,539.015,0.0
53629.0,STARLINK-4602,PAYLOAD,2024-05-15 12:30:44,15.08839035,9.5e-05,53.2144,330.8795,80.0086,280.1013,-0.00066241,-0.00010814,0.0,0 STARLINK-4602,1 53629U 22104AT  24136.52134884 -.00010814  00000-0 -66241-3 0  9993,2 53629  53.2144 330.8795 0000950  80.0086 280.1013 15.08839035 94951,6917.883,95.438,540.406,539.091,0.0
53629.0,STARLINK-4602,PAYLOAD,2024-05-15 20:27:40,15.08846813,9.57e-05,53.2171,329.3945,77.2208,282.8891,-0.00029755,-5.021e-05,0.0,0 STARLINK-4602,1 53629U 22104AT  24136.85254931 -.00005021  00000-0 -29755-3 0  9998,2 53629  53.2171 329.3945 0000957  77.2208 282.8891 15.08846813 95699,6917.86,95.437,540.387,539.063,0.0
53629.0,STARLINK-4602,PAYLOAD,2024-05-16 12:21:32,15.08842316,0.0001188,53.2168,326.4204,62.1326,297.9787,0.00073587,0.00011444,0.0,0 STARLINK-4602,1 53629U 22104AT  24137.51495528  .00011444  00000-0  73587-3 0  9997,2 53629  53.2168 326.4204 0001188  62.1326 297.9787 15.08842316 95798,6917.873,95.437,540.56,538.916,0.0
53629.0,STARLINK-4602,PAYLOAD,2024-05-16 18:43:04,15.08856574,0.0001246,53.2167,325.2315,67.7022,292.4102,0.00076828,0.00011966,0.0,0 STARLINK-4602,1 53629U 22104AT  24137.77991088  .00011966  00000-0  76828-3 0  9997,2 53629  53.2167 325.2315 0001246  67.7022 292.4102 15.08856574 95833,6917.83,95.437,540.557,538.833,0.0
53629.0,STARLINK-4602,PAYLOAD,2024-05-17 12:12:19,15.08835908,8.46e-05,53.2166,321.9606,17.8923,342.2099,0.00041964,6.396e-05,0.0,0 STARLINK-4602,1 53629U 22104AT  24138.50856065  .00006396  00000-0  41964-3 0  9998,2 53629  53.2166 321.9606 0000846  17.8923 342.2099 15.08835908 95252,6917.893,95.438,540.343,539.173,0.0
53629.0,STARLINK-4602,PAYLOAD,2024-05-17 13:47:42,15.08834989,9.81e-05,53.217,321.6627,51.6603,308.4477,0.00041356,6.299e-05,0.0,0 STARLINK-4602,1 53629U 22104AT  24138.57480149  .00006299  00000-0  41356-3 0  9998,2 53629  53.2170 321.6627 0000981  51.6603 308.4477 15.08834989 95957,6917.896,95.438,540.439,539.082,0.0
53629.0,STARLINK-4602,PAYLOAD,2024-05-17 18:33:52,15.08830398,0.0001145,53.2168,320.7704,61.3111,298.7996,0.00023534,3.459e-05,0.0,0 STARLINK-4602,1 53629U 22104AT  24138.77352377  .00003459  00000-0  23534-3 0  9994,2 53629  53.2168 320.7704 0001145  61.3111 298.7996 15.08830398 95985,6917.91,95.438,540.567,538.983,0.0
53629.0,STARLINK-4602,PAYLOAD,2024-05-18 05:41:34,15.08836228,0.0001555,53.2179,318.6879,86.3579,273.7591,0.00059568,9.204e-05,0.0,0 STARLINK-4602,1 53629U 22104AT  24139.23720694  .00009204  00000-0  59568-3 0  9997,2 53629  53.2179 318.6879 0001555  86.3579 273.7591 15.08836228 95360,6917.892,95.438,540.833,538.681,0.0
53629.0,STARLINK-4602,PAYLOAD,2024-05-18 18:24:38,15.08876302,0.0001139,53.2147,316.3093,70.4046,289.7069,0.0017717,0.00028049,0.0,0 STARLINK-4602,1 53629U 22104AT  24139.76711568  .00028049  00000-0  17717-2 0  9992,2 53629  53.2147 316.3093 0001139  70.4046 289.7069 15.08876302 95442,6917.769,95.435,540.422,538.846,0.0
53629.0,STARLINK-4602,PAYLOAD,2024-05-18 21:35:24,15.08885167,0.0001145,53.2158,315.713,74.8921,285.2198,0.0015234,0.0002407,0.0,0 STARLINK-4602,1 53629U 22104AT  24139.89959019  .00024070  00000-0  15234-2 0  9993,2 53629  53.2158 315.7130 0001145  74.8921 285.2198 15.08885167 96158,6917.742,95.435,540.399,538.815,0.0
53629.0,STARLINK-4602,PAYLOAD,2024-05-18 23:10:47,15.08895932,0.0001148,53.2166,315.4167,72.5165,287.5952,0.0016127,0.00025511,0.0,0 STARLINK-4602,1 53629U 22104AT  24139.96582689  .00025511  00000-0  16127-2 0  9999,2 53629  53.2166 315.4167 0001148  72.5165 287.5952 15.08895932 96167,6917.709,95.434,540.369,538.78,0.0
53629.0,STARLINK-4602,PAYLOAD,2024-05-19 19:50:49,15.08829665,8.67e-05,53.2168,311.5511,98.3302,261.7788,0.0014075,0.00022177,0.0,0 STARLINK-4602,1 53629U 22104AT  24140.82696102  .00022177  00000-0  14075-2 0  9997,2 53629  53.2168 311.5511 0000867  98.3302 261.7788 15.08829665 95604,6917.912,95.438,540.377,539.177,0.0
53629.0,STARLINK-4602,PAYLOAD,2024-05-20 11:44:41,15.08843851,8.61e-05,53.217,308.5769,99.3201,260.7888,0.0010661,0.00016721,0.0,0 STARLINK-4602,1 53629U 22104AT  24141.48936391  .00016721  00000-0  10661-2 0  9992,2 53629  53.2170 308.5769 0000861  99.3201 260.7888 15.08843851 95705,6917.869,95.437,540.329,539.138,0.0
53629.0,STARLINK-4602,PAYLOAD,2024-05-20 14:55:27,15.08853081,8.74e-05,53.2173,307.9825,97.7984,262.3107,0.0013254,0.00020876,0.0,0 STARLINK-4602,1 53629U 22104AT  24141.62184241  .00020876  00000-0  13254-2 0  9994,2 53629  53.2173 307.9825 0000874  97.7984 262.3107 15.08853081 96415,6917.84,95.437,540.31,539.101,0.0
53629.0,STARLINK-4602,PAYLOAD,2024-05-21 14:46:14,15.08840242,9.43e-05,53.2172,303.5215,76.0889,284.0208,6.8835e-05,8.08e-06,0.0,0 STARLINK-4602,1 53629U 22104AT  24142.61544004  .00000808  00000-0  68835-4 0  9991,2 53629  53.2172 303.5215 0000943  76.0889 284.0208 15.08840242 96564,6917.88,95.438,540.397,539.092,0.0
53629.0,STARLINK-4602,PAYLOAD,2024-05-21 16:21:37,15.08842311,9.9e-05,53.2172,303.224,89.1196,270.9909,0.00018228,2.615e-05,0.0,0 STARLINK-4602,1 53629U 22104AT  24142.68167957  .00002615  00000-0  18228-3 0  9994,2 53629  53.2172 303.2240 0000990  89.1196 270.9909 15.08842311 95882,6917.873,95.437,540.423,539.053,0.0
53629.0,STARLINK-4602,PAYLOAD,2024-05-22 20:58:33,15.08852641,9.41e-05,53.2165,297.8735,91.0303,269.0797,0.0006347,9.831e-05,0.0,0 STARLINK-4602,1 53629U 22104AT  24143.87400010  .00009831  00000-0  63470-3 0  9992,2 53629  53.2165 297.8735 0000941  91.0303 269.0797 15.08852641 96061,6917.842,95.437,540.358,539.056,0.0
53629.0,STARLINK-4602,PAYLOAD,2024-05-23 14:27:48,15.08840908,0.0002499,53.217,294.6009,142.2738,217.8429,0.0010342,0.0001621,0.0,0 STARLINK-4602,1 53629U 22104AT  24144.60264377  .00016210  00000-0  10342-2 0  9996,2 53629  53.2170 294.6009 0002499 142.2738 217.8429 15.08840908 96861,6917.878,95.437,541.471,538.014,0.0
53629.0,STARLINK-4602,PAYLOAD,2024-05-23 16:03:11,15.08836741,0.0001263,53.2172,294.3016,76.3803,283.733,0.00078518,0.00012229,0.0,0 STARLINK-4602,1 53629U 22104AT  24144.66888781  .00012229  00000-0  78518-3 0  9999,2 53629  53.2172 294.3016 0001263  76.3803 283.7330 15.08836741 96184,6917.89,95.438,540.629,538.882,0.0
53629.0,STARLINK-4602,PAYLOAD,2024-05-24 14:18:35,15.08856845,0.0001268,53.2171,290.143,76.4932,283.6202,0.00078927,0.00012301,0.0,0 STARLINK-4602,1 53629U 22104AT  24145.59624424  .00012301  00000-0  78927-3 0  9999,2 53629  53.2171 290.1430 0001268  76.4932 283.6202 15.08856845 97013,6917.829,95.436,540.571,538.817,0.0
53629.0,STARLINK-4602,PAYLOAD,2024-05-24 19:04:44,15.08869919,0.0001124,53.2164,289.2474,116.3643,243.7464,0.0010999,0.00017275,0.0,0 STARLINK-4602,1 53629U 22104AT  24145.79495773  .00017275  00000-0  10999-2 0  9993,2 53629  53.2164 289.2474 0001124 116.3643 243.7464 15.08869919 96355,6917.789,95.436,540.431,538.876,0.0
53629.0,STARLINK-4602,PAYLOAD,2024-05-25 12:33:59,15.08833563,9.02e-05,53.2162,285.9791,64.3387,295.7698,-8.9161e-05,-1.706e-05,0.0,0 STARLINK-4602,1 53629U 22104AT  24146.52360676 -.00001706  00000-0 -89161-4 0  9991,2 53629  53.2162 285.9791 0000902  64.3387 295.7698 15.08833563 96462,6917.9,95.438,540.389,539.141,0.0
53629.0,STARLINK-4602,PAYLOAD,2024-05-25 14:09:22,15.08833253,9.19e-05,53.2167,285.6819,72.3886,287.7207,-3.2231e-05,-8.01e-06,0.0,0 STARLINK-4602,1 53629U 22104AT  24146.58984710 -.00000801  00000-0 -32231-4 0  9999,2 53629  53.2167 285.6819 0000919  72.3886 287.7207 15.08833253 97167,6917.901,95.438,540.402,539.13,0.0
